[{"OBJECT_NAME":"LEMUR-2-KREMPEL-BRO1","OBJECT_ID":"2025-061G","EPOCH":"2026-03-03T09:15:59.990400","MEAN_MOTION":15.13689942,"ECCENTRICITY":0.001711,"INCLINATION":97.5518,"RA_OF_ASC_NODE":39.0399,"ARG_OF_PERICENTER":252.7564,"MEAN_ANOMALY":107.1795,"EPHEMERIS_TYPE":0,"CLASSIFICATION_TYPE":"U","NORAD_CAT_ID":63357,"ELEMENT_SET_NO":999,"REV_AT_EPOCH":5162,"BSTAR":0.00031795,"MEAN_MOTION_DOT":5.676e-5,"MEAN_MOTION_DDOT":0},{"OBJECT_NAME":"LEMUR-2-LANGER2SPACE","OBJECT_ID":"2025-061H","EPOCH":"2026-03-03T10:58:52.634496","MEAN_MOTION":15.13377771,"ECCENTRICITY":0.0015076,"INCLINATION":97.5523,"RA_OF_ASC_NODE":38.9677,"ARG_OF_PERICENTER":262.5471,"MEAN_ANOMALY":97.4047,"EPHEMERIS_TYPE":0,"CLASSIFICATION_TYPE":"U","NORAD_CAT_ID":63358,"ELEMENT_SET_NO":999,"REV_AT_EPOCH":5162,"BSTAR":0.00033796,"MEAN_MOTION_DOT":5.98e-5,"MEAN_MOTION_DDOT":0},{"OBJECT_NAME":"LEMUR-2-BALTO","OBJECT_ID":"2025-052BH","EPOCH":"2026-03-02T22:51:22.735872","MEAN_MOTION":14.98813347,"ECCENTRICITY":0.0003168,"INCLINATION":97.7009,"RA_OF_ASC_NODE":316.8579,"ARG_OF_PERICENTER":18.7287,"MEAN_ANOMALY":341.4052,"EPHEMERIS_TYPE":0,"CLASSIFICATION_TYPE":"U","NORAD_CAT_ID":63395,"ELEMENT_SET_NO":999,"REV_AT_EPOCH":5284,"BSTAR":0.0005851,"MEAN_MOTION_DOT":7.0e-5,"MEAN_MOTION_DDOT":0}]
