LEMUR-2-KREMPEL-BRO1    
1 63357U 25061G   26062.38611100  .00005676  00000+0  31795-3 0  9995
2 63357  97.5518  39.0399 0017110 252.7564 107.1795 15.13689942 51627
LEMUR-2-LANGER2SPACE    
1 63358U 25061H   26062.45755364  .00005980  00000+0  33796-3 0  9996
2 63358  97.5523  38.9677 0015076 262.5471  97.4047 15.13377771 51621
LEMUR-2-BALTO           
1 63395U 25052BH  26061.95234648  .00007000  00000+0  58510-3 0  9994
2 63395  97.7009 316.8579 0003168  18.7287 341.4052 14.98813347 52846
